{"type": "FeatureCollection", "features": [ {"type": "Feature", "properties": {"norad_id": 17070, "name": "POLAR BEAR", "group": "nnss", "lat": 89.07308765862508, "lon": -152.36292764676006, "alt_km": 943.4128392735365, "timestamp": "2025-12-26T19:22:39.175406+00:00", "meta": {"OBJECT_NAME": "POLAR BEAR", "OBJECT_ID": "1986-088A", "EPOCH": "2025-12-26T12:02:59.489088", "MEAN_MOTION": 13.7525362, "ECCENTRICITY": 0.00412658, "INCLINATION": 89.6169, "RA_OF_ASC_NODE": 183.2226, "ARG_OF_PERICENTER": 79.6962, "MEAN_ANOMALY": 298.6828, "EPHEMERIS_TYPE": 0, "CLASSIFICATION_TYPE": "U", "NORAD_CAT_ID": 17070, "ELEMENT_SET_NO": 999, "REV_AT_EPOCH": 96168, "BSTAR": 0.00010681265, "MEAN_MOTION_DOT": 1.15e-06, "MEAN_MOTION_DDOT": 0}, "tle": {"line1": "1 17070U 86088A   25360.50207742  .00000115  00000+0  10681-3 0  9993", "line2": "2 17070  89.6169 183.2226 0041265  79.6962 298.6828 13.75253620961684"}}, "geometry": {"type": "Point", "coordinates": [-152.36292764676006, 89.07308765862508]}}, {"type": "Feature", "properties": {"norad_id": 18361, "name": "OSCAR 27", "group": "nnss", "lat": -73.07650779730302, "lon": -101.43053696489135, "alt_km": 1070.7618657109415, "timestamp": "2025-12-26T19:22:39.175416+00:00", "meta": {"OBJECT_NAME": "OSCAR 27", "OBJECT_ID": "1987-080A", "EPOCH": "2025-12-26T10:59:09.176640", "MEAN_MOTION": 13.44909552, "ECCENTRICITY": 0.01040736, "INCLINATION": 90.3736, "RA_OF_ASC_NODE": 79.7851, "ARG_OF_PERICENTER": 184.3557, "MEAN_ANOMALY": 175.6697, "EPHEMERIS_TYPE": 0, "CLASSIFICATION_TYPE": "U", "NORAD_CAT_ID": 18361, "ELEMENT_SET_NO": 999, "REV_AT_EPOCH": 87741, "BSTAR": 0.00017188841, "MEAN_MOTION_DOT": 1.13e-06, "MEAN_MOTION_DDOT": 0}, "tle": {"line1": "1 18361U 87080A   25360.45774510  .00000113  00000+0  17189-3 0  9994", "line2": "2 18361  90.3736  79.7851 0104073 184.3557 175.6697 13.44909552877414"}}, "geometry": {"type": "Point", "coordinates": [-101.43053696489135, -73.07650779730302]}}, {"type": "Feature", "properties": {"norad_id": 18362, "name": "OSCAR 29", "group": "nnss", "lat": -61.682578680702335, "lon": -100.43768901138446, "alt_km": 1035.6436783015324, "timestamp": "2025-12-26T19:22:39.175426+00:00", "meta": {"OBJECT_NAME": "OSCAR 29", "OBJECT_ID": "1987-080B", "EPOCH": "2025-12-26T11:05:26.932128", "MEAN_MOTION": 13.44450985, "ECCENTRICITY": 0.01048753, "INCLINATION": 90.3748, "RA_OF_ASC_NODE": 80.2454, "ARG_OF_PERICENTER": 207.4741, "MEAN_ANOMALY": 163.2863, "EPHEMERIS_TYPE": 0, "CLASSIFICATION_TYPE": "U", "NORAD_CAT_ID": 18362, "ELEMENT_SET_NO": 999, "REV_AT_EPOCH": 87694, "BSTAR": 0.0001514268, "MEAN_MOTION_DOT": 9.9e-07, "MEAN_MOTION_DDOT": 0}, "tle": {"line1": "1 18362U 87080B   25360.46211727  .00000099  00000+0  15143-3 0  9993", "line2": "2 18362  90.3748  80.2454 0104875 207.4741 163.2863 13.44450985876942"}}, "geometry": {"type": "Point", "coordinates": [-100.43768901138446, -61.682578680702335]}}, {"type": "Feature", "properties": {"norad_id": 19070, "name": "OSCAR 23", "group": "nnss", "lat": -75.66328102312143, "lon": -164.42604130545868, "alt_km": 1220.3343117458426, "timestamp": "2025-12-26T19:22:39.175437+00:00", "meta": {"OBJECT_NAME": "OSCAR 23", "OBJECT_ID": "1988-033A", "EPOCH": "2025-12-26T15:06:18.736128", "MEAN_MOTION": 13.27789302, "ECCENTRICITY": 0.01905928, "INCLINATION": 90.3203, "RA_OF_ASC_NODE": 16.8225, "ARG_OF_PERICENTER": 141.4067, "MEAN_ANOMALY": 341.813, "EPHEMERIS_TYPE": 0, "CLASSIFICATION_TYPE": "U", "NORAD_CAT_ID": 19070, "ELEMENT_SET_NO": 999, "REV_AT_EPOCH": 82437, "BSTAR": 0.00012944345, "MEAN_MOTION_DOT": 7.4e-07, "MEAN_MOTION_DDOT": 0}, "tle": {"line1": "1 19070U 88033A   25360.62938352  .00000074  00000+0  12944-3 0  9996", "line2": "2 19070  90.3203  16.8225 0190592 141.4067 341.8130 13.27789302824375"}}, "geometry": {"type": "Point", "coordinates": [-164.42604130545868, -75.66328102312143]}}, {"type": "Feature", "properties": {"norad_id": 19071, "name": "OSCAR 32", "group": "nnss", "lat": 10.34020184021632, "lon": 16.902218807007724, "alt_km": 1219.4469663463833, "timestamp": "2025-12-26T19:22:39.175447+00:00", "meta": {"OBJECT_NAME": "OSCAR 32", "OBJECT_ID": "1988-033B", "EPOCH": "2025-12-26T10:53:58.879680", "MEAN_MOTION": 13.27955937, "ECCENTRICITY": 0.01893107, "INCLINATION": 90.3209, "RA_OF_ASC_NODE": 16.9498, "ARG_OF_PERICENTER": 128.8267, "MEAN_ANOMALY": 355.8113, "EPHEMERIS_TYPE": 0, "CLASSIFICATION_TYPE": "U", "NORAD_CAT_ID": 19071, "ELEMENT_SET_NO": 999, "REV_AT_EPOCH": 82447, "BSTAR": 0.0001395573, "MEAN_MOTION_DOT": 7.9e-07, "MEAN_MOTION_DDOT": 0}, "tle": {"line1": "1 19071U 88033B   25360.45415370  .00000079  00000+0  13956-3 0  9997", "line2": "2 19071  90.3209  16.9498 0189310 128.8267 355.8113 13.27955937824478"}}, "geometry": {"type": "Point", "coordinates": [16.902218807007724, 10.34020184021632]}}, {"type": "Feature", "properties": {"norad_id": 19223, "name": "NOVA 2", "group": "nnss", "lat": -44.37946152355697, "lon": 78.2412026427776, "alt_km": 1159.6450769922076, "timestamp": "2025-12-26T19:22:39.175457+00:00", "meta": {"OBJECT_NAME": "NOVA 2", "OBJECT_ID": "1988-052A", "EPOCH": "2025-12-26T12:23:46.849344", "MEAN_MOTION": 13.22937569, "ECCENTRICITY": 0.00294231, "INCLINATION": 89.9863, "RA_OF_ASC_NODE": 78.255, "ARG_OF_PERICENTER": 338.6148, "MEAN_ANOMALY": 32.6671, "EPHEMERIS_TYPE": 0, "CLASSIFICATION_TYPE": "U", "NORAD_CAT_ID": 19223, "ELEMENT_SET_NO": 999, "REV_AT_EPOCH": 81130, "BSTAR": 0.00012017844, "MEAN_MOTION_DOT": 5.9e-07, "MEAN_MOTION_DDOT": 0}, "tle": {"line1": "1 19223U 88052A   25360.51651446  .00000059  00000+0  12018-3 0  9996", "line2": "2 19223  89.9863  78.2550 0029423 338.6148  32.6671 13.22937569811307"}}, "geometry": {"type": "Point", "coordinates": [78.2412026427776, -44.37946152355697]}}, {"type": "Feature", "properties": {"norad_id": 19419, "name": "OSCAR 25", "group": "nnss", "lat": -51.28372240908065, "lon": 20.331385864598953, "alt_km": 1122.6064417550506, "timestamp": "2025-12-26T19:22:39.175470+00:00", "meta": {"OBJECT_NAME": "OSCAR 25", "OBJECT_ID": "1988-074A", "EPOCH": "2025-12-26T13:18:28.068192", "MEAN_MOTION": 13.42625822, "ECCENTRICITY": 0.00953169, "INCLINATION": 90.0336, "RA_OF_ASC_NODE": 20.2886, "ARG_OF_PERICENTER": 205.9306, "MEAN_ANOMALY": 320.1104, "EPHEMERIS_TYPE": 0, "CLASSIFICATION_TYPE": "U", "NORAD_CAT_ID": 19419, "ELEMENT_SET_NO": 999, "REV_AT_EPOCH": 82825, "BSTAR": 0.00014338017, "MEAN_MOTION_DOT": 9.2e-07, "MEAN_MOTION_DDOT": 0}, "tle": {"line1": "1 19419U 88074A   25360.55449153  .00000092  00000+0  14338-3 0  9995", "line2": "2 19419  90.0336  20.2886 0095316 205.9306 320.1104 13.42625822828253"}}, "geometry": {"type": "Point", "coordinates": [20.331385864598953, -51.28372240908065]}}, {"type": "Feature", "properties": {"norad_id": 19420, "name": "OSCAR 31", "group": "nnss", "lat": -9.466551230215334, "lon": -159.36410338220819, "alt_km": 1034.7077002086162, "timestamp": "2025-12-26T19:22:39.175493+00:00", "meta": {"OBJECT_NAME": "OSCAR 31", "OBJECT_ID": "1988-074B", "EPOCH": "2025-12-26T11:51:56.301696", "MEAN_MOTION": 13.42586778, "ECCENTRICITY": 0.00937157, "INCLINATION": 90.0354, "RA_OF_ASC_NODE": 20.6407, "ARG_OF_PERICENTER": 200.2518, "MEAN_ANOMALY": 277.3694, "EPHEMERIS_TYPE": 0, "CLASSIFICATION_TYPE": "U", "NORAD_CAT_ID": 19420, "ELEMENT_SET_NO": 999, "REV_AT_EPOCH": 82835, "BSTAR": 0.00010498182, "MEAN_MOTION_DOT": 7e-07, "MEAN_MOTION_DDOT": 0}, "tle": {"line1": "1 19420U 88074B   25360.49440164  .00000070  00000+0  10498-3 0  9992", "line2": "2 19420  90.0354  20.6407 0093715 200.2518 277.3694 13.42586778828356"}}, "geometry": {"type": "Point", "coordinates": [-159.36410338220819, -9.466551230215334]}}]}